[{"OBJECT_NAME":"YAOGAN-33 03","OBJECT_ID":"2023-136A","EPOCH":"2026-03-09T22:27:40.864032","MEAN_MOTION":14.58624838,"ECCENTRICITY":0.00086253,"INCLINATION":98.1935,"RA_OF_ASC_NODE":354.6145,"ARG_OF_PERICENTER":129.4155,"MEAN_ANOMALY":230.7809,"EPHEMERIS_TYPE":0,"CLASSIFICATION_TYPE":"U","NORAD_CAT_ID":57797,"ELEMENT_SET_NO":999,"REV_AT_EPOCH":13346,"BSTAR":0.0001651829,"MEAN_MOTION_DOT":7.23e-6,"MEAN_MOTION_DDOT":0},{"OBJECT_NAME":"TITAN 3C TRANSTAGE DEB","OBJECT_ID":"1965-082QQ","EPOCH":"2026-03-08T23:44:04.205184","MEAN_MOTION":14.61954839,"ECCENTRICITY":0.00272581,"INCLINATION":31.8929,"RA_OF_ASC_NODE":4.5837,"ARG_OF_PERICENTER":291.1339,"MEAN_ANOMALY":68.6389,"EPHEMERIS_TYPE":0,"CLASSIFICATION_TYPE":"U","NORAD_CAT_ID":3494,"ELEMENT_SET_NO":999,"REV_AT_EPOCH":19077,"BSTAR":0.00018816975,"MEAN_MOTION_DOT":1.007e-5,"MEAN_MOTION_DDOT":0}]
